[{"OBJECT_NAME":"CUTE-1 (CO-55)","OBJECT_ID":"2003-031E","EPOCH":"2026-03-09T23:38:51.813024","MEAN_MOTION":14.24266468,"ECCENTRICITY":0.00106777,"INCLINATION":98.6777,"RA_OF_ASC_NODE":78.7801,"ARG_OF_PERICENTER":111.7093,"MEAN_ANOMALY":248.5223,"EPHEMERIS_TYPE":0,"CLASSIFICATION_TYPE":"U","NORAD_CAT_ID":27844,"ELEMENT_SET_NO":999,"REV_AT_EPOCH":17755,"BSTAR":0.00020468113,"MEAN_MOTION_DOT":4.29e-6,"MEAN_MOTION_DDOT":0},{"OBJECT_NAME":"THORAD AGENA D DEB","OBJECT_ID":"1969-082CF","EPOCH":"2026-03-09T21:12:32.900832","MEAN_MOTION":14.2468292,"ECCENTRICITY":0.00500411,"INCLINATION":70.1044,"RA_OF_ASC_NODE":261.8619,"ARG_OF_PERICENTER":269.3115,"MEAN_ANOMALY":90.2272,"EPHEMERIS_TYPE":0,"CLASSIFICATION_TYPE":"U","NORAD_CAT_ID":4216,"ELEMENT_SET_NO":999,"REV_AT_EPOCH":14721,"BSTAR":0.00020014158,"MEAN_MOTION_DOT":4.16e-6,"MEAN_MOTION_DDOT":0}]
